KUIPER-00604            
1 69769U 26151G   26192.91670139  .00051281  00000+0  13443-2 0  9991
2 69769  51.8796 196.1715 0002779  98.5211 183.0077 15.38168554  2460
KUIPER-00609            
1 69770U 26151H   26192.91670139  .00053381  00000+0  13806-2 0  9999
2 69770  51.8797 196.1408 0001025  46.7357 249.4778 15.38567226  1307
KUIPER-00611            
1 69771U 26151J   26192.91670139  .00052432  00000+0  13646-2 0  9998
2 69771  51.8800 196.1519 0001680  95.9300 192.9789 15.38380683  1301
KUIPER-00612            
1 69772U 26151K   26192.91670139  .00051715  00000+0  13685-2 0  9995
2 69772  51.8789 196.1946 0003785 106.4271 164.8356 15.37872509  1305
KUIPER-00614            
1 69773U 26151L   26192.91670139  .00052363  00000+0  13760-2 0  9990
2 69773  51.8799 196.1759 0002798 113.5456 165.0097 15.38084636  2040
KUIPER-00615            
1 69774U 26151M   26192.91670139  .00049262  00000+0  13341-2 0  9990
2 69774  51.8772 196.2472 0006206 136.4982 109.9875 15.37166294  1300
KUIPER-00616            
1 69775U 26151N   26192.91670139  .00052686  00000+0  13736-2 0  9993
2 69775  51.8781 196.1715 0003211 112.7769 170.4392 15.38322481  1303
KUIPER-00617            
1 69776U 26151P   26192.91670139  .00051670  00000+0  13745-2 0  9996
2 69776  51.8794 196.2017 0004132 125.0028 142.1221 15.37709451  1304
KUIPER-00619            
1 69777U 26151Q   26192.91670139  .00053446  00000+0  13867-2 0  9995
2 69777  51.8799 196.1459 0001688  56.8707 235.9297 15.38469023  1535
KUIPER-00621            
1 69778U 26151R   26192.91670139  .00051985  00000+0  13585-2 0  9999
2 69778  51.8791 196.1667 0002061 104.4617 180.2325 15.38258784  2282
KUIPER-00622            
1 69779U 26151S   26192.91670139  .00048698  00000+0  13291-2 0  9991
2 69779  51.8732 196.2627 0006931 137.7429 102.0031 15.36926682  2143
KUIPER-00623            
1 69780U 26151T   26192.91670139  .00050294  00000+0  13531-2 0  9995
2 69780  51.8776 196.2257 0005115 124.6136 132.1989 15.37367875  2268
KUIPER-00626            
1 69781U 26151U   26192.91670139  .00041151  00000+0  11745-2 0  9993
2 69781  51.8713 196.3327 0010043 156.3103  48.7603 15.35582658  2509
KUIPER-00627            
1 69782U 26151V   26192.91670139  .00046242  00000+0  13213-2 0  9992
2 69782  51.8687 196.3503 0011385 157.4987  38.8040 15.35481130  1303
KUIPER-00629            
1 69783U 26151W   26192.91670139  .00047483  00000+0  12973-2 0  9993
2 69783  51.8742 196.2671 0007453 137.1845 100.1953 15.36902774  1837
KUIPER-00631            
1 69784U 26151X   26192.91670139  .00046790  00000+0  12879-2 0  9999
2 69784  51.8710 196.2836 0007996 144.6644  84.7496 15.36674582  1302
KUIPER-00634            
1 69785U 26151Y   26192.91670139  .00051313  00000+0  13670-2 0  9997
2 69785  51.8769 196.2103 0003804 125.5538 139.2698 15.37667827  1303
KUIPER-00639            
1 69786U 26151Z   26192.91670139  .00044458  00000+0  12555-2 0  9991
2 69786  51.8683 196.3162 0009857 151.5898  61.6001 15.35881579  1303
KUIPER-00641            
1 69787U 26151AA  26192.91670139  .00042481  00000+0  12272-2 0  9992
2 69787  51.8673 196.3510 0010848 150.9293  44.7808 15.35182850  2140
KUIPER-00644            
1 69788U 26151AB  26192.91670139  .00046318  00000+0  12823-2 0  9998
2 69788  51.8735 196.2965 0008684 147.2676  75.7604 15.36492038  2446
KUIPER-00646            
1 69789U 26151AC  26192.91670139  .00054139  00000+0  15204-2 0  9995
2 69789  51.8699 196.3134 0010012 152.2921  62.2966 15.35965953  1331
KUIPER-00647            
1 69790U 26151AD  26192.91670139  .00045031  00000+0  12830-2 0  9990
2 69790  51.8660 196.3427 0010827 153.2928  46.3865 15.35589034  2286
KUIPER-00662            
1 69791U 26151AE  26192.91670139  .00046936  00000+0  12952-2 0  9991
2 69791  51.8723 196.2899 0008637 142.2090  84.1187 15.36588093  1307
LINK                    
1 69792U 26152A   26192.81010318  .00107001  00000+0  95777-3 0  9997
2 69792  20.5915 353.4409 0023952 308.2180  51.6111 15.66202489  1322
ISS OBJECT YJ           
1 69794U 98067YJ  26192.95542257  .00019486  00000+0  34953-3 0  9998
2 69794  51.6301 177.4601 0007800 299.8291  60.1922 15.49896112  1494
ISS OBJECT YK           
1 69795U 98067YK  26192.95297658  .00033808  00000+0  58753-3 0  9999
2 69795  51.6303 177.4441 0006862 309.2339  50.8040 15.50471100  1490
ISS OBJECT YL           
1 69796U 98067YL  26192.95349171  .00026145  00000+0  45928-3 0  9994
2 69796  51.6301 177.4476 0008889 301.5465  58.4655 15.50288850  1486
ISS OBJECT YM           
1 69797U 98067YM  26192.95332361  .00027797  00000+0  48692-3 0  9993
2 69797  51.6301 177.4461 0009626 292.4238  67.5731 15.50326631  1472
ISS OBJECT YN           
1 69798U 98067YN  26192.95363224  .00018740  00000+0  33300-3 0  9994
2 69798  51.6303 177.4483 0009269 303.7825  56.2280 15.50180541  1494
