OBJECT_NAME,OBJECT_ID,EPOCH,MEAN_MOTION,ECCENTRICITY,INCLINATION,RA_OF_ASC_NODE,ARG_OF_PERICENTER,MEAN_ANOMALY,EPHEMERIS_TYPE,CLASSIFICATION_TYPE,NORAD_CAT_ID,ELEMENT_SET_NO,REV_AT_EPOCH,BSTAR,MEAN_MOTION_DOT,MEAN_MOTION_DDOT
KUIPER-00604,2026-151G,2026-07-11T22:00:03.000096,15.38168554,.00027795,51.8796,196.1715,98.5211,183.0077,0,U,69769,999,246,.13442801E-2,.51281E-3,0
KUIPER-00609,2026-151H,2026-07-11T22:00:03.000096,15.38567226,.00010254,51.8797,196.1408,46.7357,249.4778,0,U,69770,999,130,.13805837E-2,.53381E-3,0
KUIPER-00611,2026-151J,2026-07-11T22:00:03.000096,15.38380683,.00016802,51.8800,196.1519,95.9300,192.9789,0,U,69771,999,130,.13646348E-2,.52432E-3,0
KUIPER-00612,2026-151K,2026-07-11T22:00:03.000096,15.37872509,.00037851,51.8789,196.1946,106.4271,164.8356,0,U,69772,999,130,.13684527E-2,.51715E-3,0
KUIPER-00614,2026-151L,2026-07-11T22:00:03.000096,15.38084636,.00027988,51.8799,196.1759,113.5456,165.0097,0,U,69773,999,204,.13759794E-2,.52363E-3,0
KUIPER-00615,2026-151M,2026-07-11T22:00:03.000096,15.37166294,.00062066,51.8772,196.2472,136.4982,109.9875,0,U,69774,999,130,.13341178E-2,.49262E-3,0
KUIPER-00616,2026-151N,2026-07-11T22:00:03.000096,15.38322481,.00032113,51.8781,196.1715,112.7769,170.4392,0,U,69775,999,130,.13736305E-2,.52686E-3,0
KUIPER-00617,2026-151P,2026-07-11T22:00:03.000096,15.37709451,.00041328,51.8794,196.2017,125.0028,142.1221,0,U,69776,999,130,.13744657E-2,.5167E-3,0
KUIPER-00619,2026-151Q,2026-07-11T22:00:03.000096,15.38469023,.0001688,51.8799,196.1459,56.8707,235.9297,0,U,69777,999,153,.13866673E-2,.53446E-3,0
KUIPER-00621,2026-151R,2026-07-11T22:00:03.000096,15.38258784,.00020611,51.8791,196.1667,104.4617,180.2325,0,U,69778,999,228,.13585268E-2,.51985E-3,0
KUIPER-00622,2026-151S,2026-07-11T22:00:03.000096,15.36926682,.00069319,51.8732,196.2627,137.7429,102.0031,0,U,69779,999,214,.13291122E-2,.48698E-3,0
KUIPER-00623,2026-151T,2026-07-11T22:00:03.000096,15.37367875,.00051157,51.8776,196.2257,124.6136,132.1989,0,U,69780,999,226,.13530881E-2,.50294E-3,0
KUIPER-00626,2026-151U,2026-07-11T22:00:03.000096,15.35582658,.00100436,51.8713,196.3327,156.3103,48.7603,0,U,69781,999,250,.11745338E-2,.41151E-3,0
KUIPER-00627,2026-151V,2026-07-11T22:00:03.000096,15.35481130,.00113852,51.8687,196.3503,157.4987,38.8040,0,U,69782,999,130,.1321289E-2,.46242E-3,0
KUIPER-00629,2026-151W,2026-07-11T22:00:03.000096,15.36902774,.00074534,51.8742,196.2671,137.1845,100.1953,0,U,69783,999,183,.12972761E-2,.47483E-3,0
KUIPER-00631,2026-151X,2026-07-11T22:00:03.000096,15.36674582,.00079961,51.8710,196.2836,144.6644,84.7496,0,U,69784,999,130,.12878593E-2,.4679E-3,0
KUIPER-00634,2026-151Y,2026-07-11T22:00:03.000096,15.37667827,.00038043,51.8769,196.2103,125.5538,139.2698,0,U,69785,999,130,.13669891E-2,.51313E-3,0
KUIPER-00639,2026-151Z,2026-07-11T22:00:03.000096,15.35881579,.00098578,51.8683,196.3162,151.5898,61.6001,0,U,69786,999,130,.12554975E-2,.44458E-3,0
KUIPER-00641,2026-151AA,2026-07-11T22:00:03.000096,15.35182850,.00108488,51.8673,196.3510,150.9293,44.7808,0,U,69787,999,214,.12271762E-2,.42481E-3,0
KUIPER-00644,2026-151AB,2026-07-11T22:00:03.000096,15.36492038,.00086846,51.8735,196.2965,147.2676,75.7604,0,U,69788,999,244,.12823441E-2,.46318E-3,0
KUIPER-00646,2026-151AC,2026-07-11T22:00:03.000096,15.35965953,.00100123,51.8699,196.3134,152.2921,62.2966,0,U,69789,999,133,.15204094E-2,.54139E-3,0
KUIPER-00647,2026-151AD,2026-07-11T22:00:03.000096,15.35589034,.00108275,51.8660,196.3427,153.2928,46.3865,0,U,69790,999,228,.128301E-2,.45031E-3,0
KUIPER-00662,2026-151AE,2026-07-11T22:00:03.000096,15.36588093,.00086377,51.8723,196.2899,142.2090,84.1187,0,U,69791,999,130,.1295215E-2,.46936E-3,0
LINK,2026-152A,2026-07-11T19:26:32.914752,15.66202489,.00239525,20.5915,353.4409,308.2180,51.6111,0,U,69792,999,132,.95776551E-3,.107001E-2,0
ISS OBJECT YJ,1998-067YJ,2026-07-11T22:55:48.510048,15.49896112,.00078007,51.6301,177.4601,299.8291,60.1922,0,U,69794,999,149,.34953372E-3,.19486E-3,0
ISS OBJECT YK,1998-067YK,2026-07-11T22:52:17.176512,15.50471100,.00068624,51.6303,177.4441,309.2339,50.8040,0,U,69795,999,149,.58753489E-3,.33808E-3,0
ISS OBJECT YL,1998-067YL,2026-07-11T22:53:01.683744,15.50288850,.00088896,51.6301,177.4476,301.5465,58.4655,0,U,69796,999,148,.45928337E-3,.26145E-3,0
ISS OBJECT YM,1998-067YM,2026-07-11T22:52:47.159904,15.50326631,.00096269,51.6301,177.4461,292.4238,67.5731,0,U,69797,999,147,.48691732E-3,.27797E-3,0
ISS OBJECT YN,1998-067YN,2026-07-11T22:53:13.825536,15.50180541,.00092696,51.6303,177.4483,303.7825,56.2280,0,U,69798,999,149,.33300251E-3,.1874E-3,0
